NOAA 1                  
1 04793U 70106A   26063.05654447 -.00000026  00000+0  10659-3 0  9991
2 04793 101.3524 102.3242 0031691 191.9088 196.6461 12.54049162527518
NOAA 2 (ITOS-D)         
1 06235U 72082A   26063.05652453 -.00000033  00000+0  82813-4 0  9994
2 06235 102.0168  80.4458 0003992  15.8167 351.5554 12.53211641441784
NOAA 3                  
1 06920U 73086A   26063.01519413 -.00000036  00000+0  77841-4 0  9992
2 06920 102.2909  75.9384 0006197 319.6279  54.2520 12.40391610368864
NOAA 4                  
1 07529U 74089A   26062.65958343 -.00000042  00000+0  25942-4 0  9992
2 07529 102.0074  74.3262 0009166  40.1247  69.2102 12.53201525346305
NOAA 5                  
1 09057U 76077A   26062.92982900 -.00000039  00000+0  55212-4 0  9994
2 09057 102.2951  48.4066 0009765 171.1689 202.7499 12.37828214241458
TIROS N                 
1 11060U 78096A   26063.10146186  .00000247  00000+0  13748-3 0  9990
2 11060  98.4639  88.8691 0010418 181.0156 179.1002 14.19335639663846
NOAA 6                  
1 11416U 79057A   26063.04483096  .00000450  00000+0  17196-3 0  9997
2 11416  98.5758  93.2325 0009430 204.0715 156.0031 14.35428833435870
NOAA 7                  
1 12553U 81059A   26063.15649045  .00000098  00000+0  69802-4 0  9995
2 12553  98.8070 131.2541 0011057 203.8107 156.2558 14.17772006309865
NOAA 8                  
1 13923U 83022A   26063.02581998  .00000219  00000+0  10262-3 0  9997
2 13923  98.7373  75.8045 0014356 202.3641 157.6916 14.29764355236049
NOAA 9                  
1 15427U 84123A   26063.06026506  .00000161  00000+0  10305-3 0  9998
2 15427  99.1100  87.2105 0013698 288.7770  94.0251 14.17036825128537
NOAA 10                 
1 16969U 86073A   26062.53236189  .00000219  00000+0  10398-3 0  9993
2 16969  98.6994  55.9376 0011210 308.8224 162.0514 14.29141199 54329
NOAA 11                 
1 19531U 88089A   26062.85022814  .00000083  00000+0  63575-4 0  9998
2 19531  98.6090  12.0878 0010072 237.7636 122.2562 14.15819243932577
NOAA 12                 
1 21263U 91032A   26063.14298731  .00000169  00000+0  87961-4 0  9991
2 21263  98.6146  53.2308 0013235 340.0133  20.0527 14.26715435809987
NOAA 13                 
1 22739U 93050A   26062.84582406  .00000169  00000+0  11202-3 0  9997
2 22739  98.6926  10.7563 0010543  72.0332 288.1989 14.13634068678492
NOAA 14                 
1 23455U 94089A   26063.09450013  .00000117  00000+0  82378-4 0  9998
2 23455  98.5013  37.5754 0010080  31.7277 328.4503 14.14653874608343
NOAA 15                 
1 25338U 98030A   26063.15987726  .00000209  00000+0  10307-3 0  9997
2 25338  98.5167  86.5855 0009180 298.3183  61.7071 14.27110060446310
NOAA 16                 
1 26536U 00055A   26063.14905653  .00000150  00000+0  10090-3 0  9990
2 26536  98.4707  82.9404 0009391 239.6970 120.3275 14.13896412608883
