[{"OBJECT_NAME":"NOAA 1","OBJECT_ID":"1970-106A","EPOCH":"2026-03-04T01:21:25.442208","MEAN_MOTION":12.54049162,"ECCENTRICITY":0.0031691,"INCLINATION":101.3524,"RA_OF_ASC_NODE":102.3242,"ARG_OF_PERICENTER":191.9088,"MEAN_ANOMALY":196.6461,"EPHEMERIS_TYPE":0,"CLASSIFICATION_TYPE":"U","NORAD_CAT_ID":4793,"ELEMENT_SET_NO":999,"REV_AT_EPOCH":52751,"BSTAR":0.00010659,"MEAN_MOTION_DOT":-2.6e-7,"MEAN_MOTION_DDOT":0},{"OBJECT_NAME":"NOAA 2 (ITOS-D)","OBJECT_ID":"1972-082A","EPOCH":"2026-03-04T01:21:23.719392","MEAN_MOTION":12.53211641,"ECCENTRICITY":0.0003992,"INCLINATION":102.0168,"RA_OF_ASC_NODE":80.4458,"ARG_OF_PERICENTER":15.8167,"MEAN_ANOMALY":351.5554,"EPHEMERIS_TYPE":0,"CLASSIFICATION_TYPE":"U","NORAD_CAT_ID":6235,"ELEMENT_SET_NO":999,"REV_AT_EPOCH":44178,"BSTAR":8.2813e-5,"MEAN_MOTION_DOT":-3.3e-7,"MEAN_MOTION_DDOT":0},{"OBJECT_NAME":"NOAA 3","OBJECT_ID":"1973-086A","EPOCH":"2026-03-04T00:21:52.772832","MEAN_MOTION":12.4039161,"ECCENTRICITY":0.0006197,"INCLINATION":102.2909,"RA_OF_ASC_NODE":75.9384,"ARG_OF_PERICENTER":319.6279,"MEAN_ANOMALY":54.252,"EPHEMERIS_TYPE":0,"CLASSIFICATION_TYPE":"U","NORAD_CAT_ID":6920,"ELEMENT_SET_NO":999,"REV_AT_EPOCH":36886,"BSTAR":7.7841e-5,"MEAN_MOTION_DOT":-3.6e-7,"MEAN_MOTION_DDOT":0},{"OBJECT_NAME":"NOAA 4","OBJECT_ID":"1974-089A","EPOCH":"2026-03-03T15:49:48.008352","MEAN_MOTION":12.53201525,"ECCENTRICITY":0.0009166,"INCLINATION":102.0074,"RA_OF_ASC_NODE":74.3262,"ARG_OF_PERICENTER":40.1247,"MEAN_ANOMALY":69.2102,"EPHEMERIS_TYPE":0,"CLASSIFICATION_TYPE":"U","NORAD_CAT_ID":7529,"ELEMENT_SET_NO":999,"REV_AT_EPOCH":34630,"BSTAR":2.5942e-5,"MEAN_MOTION_DOT":-4.2e-7,"MEAN_MOTION_DDOT":0},{"OBJECT_NAME":"NOAA 5","OBJECT_ID":"1976-077A","EPOCH":"2026-03-03T22:18:57.225600","MEAN_MOTION":12.37828214,"ECCENTRICITY":0.0009765,"INCLINATION":102.2951,"RA_OF_ASC_NODE":48.4066,"ARG_OF_PERICENTER":171.1689,"MEAN_ANOMALY":202.7499,"EPHEMERIS_TYPE":0,"CLASSIFICATION_TYPE":"U","NORAD_CAT_ID":9057,"ELEMENT_SET_NO":999,"REV_AT_EPOCH":24145,"BSTAR":5.5212e-5,"MEAN_MOTION_DOT":-3.9e-7,"MEAN_MOTION_DDOT":0},{"OBJECT_NAME":"TIROS N","OBJECT_ID":"1978-096A","EPOCH":"2026-03-04T02:26:06.304704","MEAN_MOTION":14.19335639,"ECCENTRICITY":0.0010418,"INCLINATION":98.4639,"RA_OF_ASC_NODE":88.8691,"ARG_OF_PERICENTER":181.0156,"MEAN_ANOMALY":179.1002,"EPHEMERIS_TYPE":0,"CLASSIFICATION_TYPE":"U","NORAD_CAT_ID":11060,"ELEMENT_SET_NO":999,"REV_AT_EPOCH":66384,"BSTAR":0.00013748,"MEAN_MOTION_DOT":2.47e-6,"MEAN_MOTION_DDOT":0},{"OBJECT_NAME":"NOAA 6","OBJECT_ID":"1979-057A","EPOCH":"2026-03-04T01:04:33.394944","MEAN_MOTION":14.35428833,"ECCENTRICITY":0.000943,"INCLINATION":98.5758,"RA_OF_ASC_NODE":93.2325,"ARG_OF_PERICENTER":204.0715,"MEAN_ANOMALY":156.0031,"EPHEMERIS_TYPE":0,"CLASSIFICATION_TYPE":"U","NORAD_CAT_ID":11416,"ELEMENT_SET_NO":999,"REV_AT_EPOCH":43587,"BSTAR":0.00017196,"MEAN_MOTION_DOT":4.5e-6,"MEAN_MOTION_DDOT":0},{"OBJECT_NAME":"NOAA 7","OBJECT_ID":"1981-059A","EPOCH":"2026-03-04T03:45:20.774880","MEAN_MOTION":14.17772006,"ECCENTRICITY":0.0011057,"INCLINATION":98.807,"RA_OF_ASC_NODE":131.2541,"ARG_OF_PERICENTER":203.8107,"MEAN_ANOMALY":156.2558,"EPHEMERIS_TYPE":0,"CLASSIFICATION_TYPE":"U","NORAD_CAT_ID":12553,"ELEMENT_SET_NO":999,"REV_AT_EPOCH":30986,"BSTAR":6.9802e-5,"MEAN_MOTION_DOT":9.8e-7,"MEAN_MOTION_DDOT":0},{"OBJECT_NAME":"NOAA 8","OBJECT_ID":"1983-022A","EPOCH":"2026-03-04T00:37:10.846272","MEAN_MOTION":14.29764355,"ECCENTRICITY":0.0014356,"INCLINATION":98.7373,"RA_OF_ASC_NODE":75.8045,"ARG_OF_PERICENTER":202.3641,"MEAN_ANOMALY":157.6916,"EPHEMERIS_TYPE":0,"CLASSIFICATION_TYPE":"U","NORAD_CAT_ID":13923,"ELEMENT_SET_NO":999,"REV_AT_EPOCH":23604,"BSTAR":0.00010262,"MEAN_MOTION_DOT":2.19e-6,"MEAN_MOTION_DDOT":0},{"OBJECT_NAME":"NOAA 9","OBJECT_ID":"1984-123A","EPOCH":"2026-03-04T01:26:46.901184","MEAN_MOTION":14.17036825,"ECCENTRICITY":0.0013698,"INCLINATION":99.11,"RA_OF_ASC_NODE":87.2105,"ARG_OF_PERICENTER":288.777,"MEAN_ANOMALY":94.0251,"EPHEMERIS_TYPE":0,"CLASSIFICATION_TYPE":"U","NORAD_CAT_ID":15427,"ELEMENT_SET_NO":999,"REV_AT_EPOCH":12853,"BSTAR":0.00010305,"MEAN_MOTION_DOT":1.61e-6,"MEAN_MOTION_DDOT":0},{"OBJECT_NAME":"NOAA 10","OBJECT_ID":"1986-073A","EPOCH":"2026-03-03T12:46:36.067296","MEAN_MOTION":14.29141199,"ECCENTRICITY":0.001121,"INCLINATION":98.6994,"RA_OF_ASC_NODE":55.9376,"ARG_OF_PERICENTER":308.8224,"MEAN_ANOMALY":162.0514,"EPHEMERIS_TYPE":0,"CLASSIFICATION_TYPE":"U","NORAD_CAT_ID":16969,"ELEMENT_SET_NO":999,"REV_AT_EPOCH":5432,"BSTAR":0.00010398,"MEAN_MOTION_DOT":2.19e-6,"MEAN_MOTION_DDOT":0},{"OBJECT_NAME":"NOAA 11","OBJECT_ID":"1988-089A","EPOCH":"2026-03-03T20:24:19.711296","MEAN_MOTION":14.15819243,"ECCENTRICITY":0.0010072,"INCLINATION":98.609,"RA_OF_ASC_NODE":12.0878,"ARG_OF_PERICENTER":237.7636,"MEAN_ANOMALY":122.2562,"EPHEMERIS_TYPE":0,"CLASSIFICATION_TYPE":"U","NORAD_CAT_ID":19531,"ELEMENT_SET_NO":999,"REV_AT_EPOCH":93257,"BSTAR":6.3575e-5,"MEAN_MOTION_DOT":8.3e-7,"MEAN_MOTION_DDOT":0},{"OBJECT_NAME":"NOAA 12","OBJECT_ID":"1991-032A","EPOCH":"2026-03-04T03:25:54.103584","MEAN_MOTION":14.26715435,"ECCENTRICITY":0.0013235,"INCLINATION":98.6146,"RA_OF_ASC_NODE":53.2308,"ARG_OF_PERICENTER":340.0133,"MEAN_ANOMALY":20.0527,"EPHEMERIS_TYPE":0,"CLASSIFICATION_TYPE":"U","NORAD_CAT_ID":21263,"ELEMENT_SET_NO":999,"REV_AT_EPOCH":80998,"BSTAR":8.7961e-5,"MEAN_MOTION_DOT":1.69e-6,"MEAN_MOTION_DDOT":0},{"OBJECT_NAME":"NOAA 13","OBJECT_ID":"1993-050A","EPOCH":"2026-03-03T20:17:59.198784","MEAN_MOTION":14.13634068,"ECCENTRICITY":0.0010543,"INCLINATION":98.6926,"RA_OF_ASC_NODE":10.7563,"ARG_OF_PERICENTER":72.0332,"MEAN_ANOMALY":288.1989,"EPHEMERIS_TYPE":0,"CLASSIFICATION_TYPE":"U","NORAD_CAT_ID":22739,"ELEMENT_SET_NO":999,"REV_AT_EPOCH":67849,"BSTAR":0.00011202,"MEAN_MOTION_DOT":1.69e-6,"MEAN_MOTION_DDOT":0},{"OBJECT_NAME":"NOAA 14","OBJECT_ID":"1994-089A","EPOCH":"2026-03-04T02:16:04.811232","MEAN_MOTION":14.14653874,"ECCENTRICITY":0.001008,"INCLINATION":98.5013,"RA_OF_ASC_NODE":37.5754,"ARG_OF_PERICENTER":31.7277,"MEAN_ANOMALY":328.4503,"EPHEMERIS_TYPE":0,"CLASSIFICATION_TYPE":"U","NORAD_CAT_ID":23455,"ELEMENT_SET_NO":999,"REV_AT_EPOCH":60834,"BSTAR":8.2378e-5,"MEAN_MOTION_DOT":1.17e-6,"MEAN_MOTION_DDOT":0},{"OBJECT_NAME":"NOAA 15","OBJECT_ID":"1998-030A","EPOCH":"2026-03-04T03:50:13.395264","MEAN_MOTION":14.2711006,"ECCENTRICITY":0.000918,"INCLINATION":98.5167,"RA_OF_ASC_NODE":86.5855,"ARG_OF_PERICENTER":298.3183,"MEAN_ANOMALY":61.7071,"EPHEMERIS_TYPE":0,"CLASSIFICATION_TYPE":"U","NORAD_CAT_ID":25338,"ELEMENT_SET_NO":999,"REV_AT_EPOCH":44631,"BSTAR":0.00010307,"MEAN_MOTION_DOT":2.09e-6,"MEAN_MOTION_DDOT":0},{"OBJECT_NAME":"NOAA 16","OBJECT_ID":"2000-055A","EPOCH":"2026-03-04T03:34:38.484192","MEAN_MOTION":14.13896412,"ECCENTRICITY":0.0009391,"INCLINATION":98.4707,"RA_OF_ASC_NODE":82.9404,"ARG_OF_PERICENTER":239.697,"MEAN_ANOMALY":120.3275,"EPHEMERIS_TYPE":0,"CLASSIFICATION_TYPE":"U","NORAD_CAT_ID":26536,"ELEMENT_SET_NO":999,"REV_AT_EPOCH":60888,"BSTAR":0.0001009,"MEAN_MOTION_DOT":1.5e-6,"MEAN_MOTION_DDOT":0}]
